[{"OBJECT_NAME":"GEESAT-5 11","OBJECT_ID":"2025-201L","EPOCH":"2026-03-09T16:20:00.938688","MEAN_MOTION":14.8375843,"ECCENTRICITY":0.00089326,"INCLINATION":49.9859,"RA_OF_ASC_NODE":140.356,"ARG_OF_PERICENTER":317.2651,"MEAN_ANOMALY":42.7591,"EPHEMERIS_TYPE":0,"CLASSIFICATION_TYPE":"U","NORAD_CAT_ID":65560,"ELEMENT_SET_NO":999,"REV_AT_EPOCH":2704,"BSTAR":0.00034705085,"MEAN_MOTION_DOT":2.678e-5,"MEAN_MOTION_DDOT":0},{"OBJECT_NAME":"OBJECT C","OBJECT_ID":"2025-313C","EPOCH":"2026-03-09T21:13:39.359712","MEAN_MOTION":14.86307196,"ECCENTRICITY":0.01562422,"INCLINATION":97.6236,"RA_OF_ASC_NODE":143.4861,"ARG_OF_PERICENTER":305.4656,"MEAN_ANOMALY":53.2062,"EPHEMERIS_TYPE":0,"CLASSIFICATION_TYPE":"U","NORAD_CAT_ID":67250,"ELEMENT_SET_NO":999,"REV_AT_EPOCH":1059,"BSTAR":0.0010268788,"MEAN_MOTION_DOT":0.00011246,"MEAN_MOTION_DDOT":0}]
